{
    "links": {
        "self": "http://www.neowsapp.com/rest/v1/neo/3843117?api_key=iIulBulltgU6a56xZRHN4H3l9WmuAYTsLGpBGhQ2"
    },
    "id": "3843117",
    "neo_reference_id": "3843117",
    "name": "(2019 MZ3)",
    "designation": "2019 MZ3",
    "nasa_jpl_url": "http://ssd.jpl.nasa.gov/sbdb.cgi?sstr=3843117",
    "absolute_magnitude_h": 22.7,
    "estimated_diameter": {
        "kilometers": {
            "estimated_diameter_min": 0.0766575574,
            "estimated_diameter_max": 0.1714115092
        },
        "meters": {
            "estimated_diameter_min": 76.6575573531,
            "estimated_diameter_max": 171.4115092306
        },
        "miles": {
            "estimated_diameter_min": 0.0476327831,
            "estimated_diameter_max": 0.1065101409
        },
        "feet": {
            "estimated_diameter_min": 251.5011804664,
            "estimated_diameter_max": 562.3737359442
        }
    },
    "is_potentially_hazardous_asteroid": false,
    "close_approach_data": [
        {
            "close_approach_date": "1958-12-28",
            "close_approach_date_full": "1958-Dec-28 16:20",
            "epoch_date_close_approach": -347442000000,
            "relative_velocity": {
                "kilometers_per_second": "6.5903842561",
                "kilometers_per_hour": "23725.383321859",
                "miles_per_hour": "14742.0305424073"
            },
            "miss_distance": {
                "astronomical": "1.4226965976",
                "lunar": "553.4289764664",
                "kilometers": "212832380.657207112",
                "miles": "132247908.9233656656"
            },
            "orbiting_body": "Juptr"
        },
        {
            "close_approach_date": "2018-02-17",
            "close_approach_date_full": "2018-Feb-17 17:55",
            "epoch_date_close_approach": 1518890100000,
            "relative_velocity": {
                "kilometers_per_second": "6.7868285282",
                "kilometers_per_hour": "24432.5827015596",
                "miles_per_hour": "15181.4567347552"
            },
            "miss_distance": {
                "astronomical": "1.4963616842",
                "lunar": "582.0846951538",
                "kilometers": "223852520.705932654",
                "miles": "139095506.4223284652"
            },
            "orbiting_body": "Juptr"
        },
        {
            "close_approach_date": "2019-07-16",
            "close_approach_date_full": "2019-Jul-16 15:08",
            "epoch_date_close_approach": 1563289680000,
            "relative_velocity": {
                "kilometers_per_second": "28.7471443893",
                "kilometers_per_hour": "103489.7198014487",
                "miles_per_hour": "64304.4872844057"
            },
            "miss_distance": {
                "astronomical": "0.0629235392",
                "lunar": "24.4772567488",
                "kilometers": "9413227.437181504",
                "miles": "5849108.3027085952"
            },
            "orbiting_body": "Earth"
        }
    ],
    "orbital_data": {
        "orbit_id": "5",
        "orbit_determination_date": "2019-07-15 05:57:11",
        "first_observation_date": "2019-06-30",
        "last_observation_date": "2019-07-15",
        "data_arc_in_days": 15,
        "observations_used": 51,
        "orbit_uncertainty": "8",
        "minimum_orbit_intersection": ".0156221",
        "jupiter_tisserand_invariant": "3.035",
        "epoch_osculation": "2458670.5",
        "eccentricity": ".8170208956257494",
        "semi_major_axis": "2.283864159986629",
        "inclination": "7.832450232256574",
        "ascending_node_longitude": "122.8404572336231",
        "orbital_period": "1260.677003684355",
        "perihelion_distance": ".4178994185068035",
        "perihelion_argument": "281.4723508327202",
        "aphelion_distance": "4.149828901466455",
        "perihelion_time": "2458725.416528738863",
        "mean_anomaly": "344.3179892326007",
        "mean_motion": ".2855608525799174",
        "equinox": "J2000",
        "orbit_class": {
            "orbit_class_type": "APO",
            "orbit_class_description": "Near-Earth asteroid orbits which cross the Earth’s orbit similar to that of 1862 Apollo",
            "orbit_class_range": "a (semi-major axis) > 1.0 AU; q (perihelion) < 1.017 AU"
        }
    },
    "is_sentry_object": false
}